[{"OBJECT_NAME":"STARLINK-6197","OBJECT_ID":"2023-078A","EPOCH":"2026-03-09T22:55:29.940960","MEAN_MOTION":15.17018833,"ECCENTRICITY":0.00072438,"INCLINATION":69.9932,"RA_OF_ASC_NODE":349.0269,"ARG_OF_PERICENTER":212.47,"MEAN_ANOMALY":147.6024,"EPHEMERIS_TYPE":0,"CLASSIFICATION_TYPE":"U","NORAD_CAT_ID":56767,"ELEMENT_SET_NO":999,"REV_AT_EPOCH":15259,"BSTAR":0.00062350917,"MEAN_MOTION_DOT":0.00012272,"MEAN_MOTION_DDOT":0},{"OBJECT_NAME":"IHI-SAT2","OBJECT_ID":"2025-276DL","EPOCH":"2026-03-09T17:30:40.180608","MEAN_MOTION":15.20112566,"ECCENTRICITY":0.00018696,"INCLINATION":97.4302,"RA_OF_ASC_NODE":144.214,"ARG_OF_PERICENTER":154.4631,"MEAN_ANOMALY":205.6697,"EPHEMERIS_TYPE":0,"CLASSIFICATION_TYPE":"U","NORAD_CAT_ID":66772,"ELEMENT_SET_NO":999,"REV_AT_EPOCH":1533,"BSTAR":0.00038428592,"MEAN_MOTION_DOT":8.239e-5,"MEAN_MOTION_DDOT":0}]
